0 2 5.0
1 46611U 20071A   20336.58729852 -.00000341 +00000-0 +00000-0 0  9996
2 46611 001.8858 281.7366 0008114 267.5035 210.9449 01.00293408000620
